export const satelliteData = [{
  "OBJECT_NAME": "1998-067XC",
  "OBJECT_ID": "1998-067XC",
  "EPOCH": "2025-01-22T04:43:51.831552",
  "MEAN_MOTION": 15.60670915,
  "ECCENTRICITY": 0.0014585,
  "INCLINATION": 51.6353,
  "RA_OF_ASC_NODE": 308.5134,
  "ARG_OF_PERICENTER": 129.6271,
  "MEAN_ANOMALY": 230.6013,
  "EPHEMERIS_TYPE": 0,
  "CLASSIFICATION_TYPE": "U",
  "NORAD_CAT_ID": 62296,
  "ELEMENT_SET_NO": 999,
  "REV_AT_EPOCH": 682,
  "BSTAR": 0.0017948,
  "MEAN_MOTION_DOT": 0.00154926,
  "MEAN_MOTION_DDOT": 0
},{
  "OBJECT_NAME": "1998-067XD",
  "OBJECT_ID": "1998-067XD",
  "EPOCH": "2025-01-22T03:39:17.567424",
  "MEAN_MOTION": 15.64856671,
  "ECCENTRICITY": 0.0015702,
  "INCLINATION": 51.6346,
  "RA_OF_ASC_NODE": 308.2125,
  "ARG_OF_PERICENTER": 135.8973,
  "MEAN_ANOMALY": 224.3277,
  "EPHEMERIS_TYPE": 0,
  "CLASSIFICATION_TYPE": "U",
  "NORAD_CAT_ID": 62297,
  "ELEMENT_SET_NO": 999,
  "REV_AT_EPOCH": 682,
  "BSTAR": 0.0024241,
  "MEAN_MOTION_DOT": 0.00249806,
  "MEAN_MOTION_DDOT": 0
},{
  "OBJECT_NAME": "YOMOGI",
  "OBJECT_ID": "1998-067XE",
  "EPOCH": "2025-01-22T01:37:41.137536",
  "MEAN_MOTION": 15.60784758,
  "ECCENTRICITY": 0.0014513,
  "INCLINATION": 51.6346,
  "RA_OF_ASC_NODE": 309.1495,
  "ARG_OF_PERICENTER": 129.8384,
  "MEAN_ANOMALY": 230.3888,
  "EPHEMERIS_TYPE": 0,
  "CLASSIFICATION_TYPE": "U",
  "NORAD_CAT_ID": 62298,
  "ELEMENT_SET_NO": 999,
  "REV_AT_EPOCH": 680,
  "BSTAR": 0.0017391,
  "MEAN_MOTION_DOT": 0.00150678,
  "MEAN_MOTION_DDOT": 0
},{
  "OBJECT_NAME": "ONGLAISAT",
  "OBJECT_ID": "1998-067XF",
  "EPOCH": "2025-01-22T08:15:25.511328",
  "MEAN_MOTION": 15.65485885,
  "ECCENTRICITY": 0.0013577,
  "INCLINATION": 51.6348,
  "RA_OF_ASC_NODE": 307.2464,
  "ARG_OF_PERICENTER": 140.2656,
  "MEAN_ANOMALY": 219.9336,
  "EPHEMERIS_TYPE": 0,
  "CLASSIFICATION_TYPE": "U",
  "NORAD_CAT_ID": 62299,
  "ELEMENT_SET_NO": 999,
  "REV_AT_EPOCH": 683,
  "BSTAR": 0.0026465,
  "MEAN_MOTION_DOT": 0.00280323,
  "MEAN_MOTION_DDOT": 0
},{
  "OBJECT_NAME": "ISS DEB",
  "OBJECT_ID": "1998-067XG",
  "EPOCH": "2025-01-22T04:24:18.375264",
  "MEAN_MOTION": 15.5856011,
  "ECCENTRICITY": 0.0011561,
  "INCLINATION": 51.6374,
  "RA_OF_ASC_NODE": 309.1777,
  "ARG_OF_PERICENTER": 129.5836,
  "MEAN_ANOMALY": 230.6179,
  "EPHEMERIS_TYPE": 0,
  "CLASSIFICATION_TYPE": "U",
  "NORAD_CAT_ID": 62376,
  "ELEMENT_SET_NO": 999,
  "REV_AT_EPOCH": 520,
  "BSTAR": 0.0018433,
  "MEAN_MOTION_DOT": 0.00146381,
  "MEAN_MOTION_DDOT": 0
},{
  "OBJECT_NAME": "DRAGON CRS-31 DEB",
  "OBJECT_ID": "2024-200B",
  "EPOCH": "2025-01-22T00:57:14.450976",
  "MEAN_MOTION": 16.03905875,
  "ECCENTRICITY": 0.0031879,
  "INCLINATION": 51.6292,
  "RA_OF_ASC_NODE": 301.3459,
  "ARG_OF_PERICENTER": 286.8128,
  "MEAN_ANOMALY": 77.6406,
  "EPHEMERIS_TYPE": 0,
  "CLASSIFICATION_TYPE": "U",
  "NORAD_CAT_ID": 62608,
  "ELEMENT_SET_NO": 999,
  "REV_AT_EPOCH": 124,
  "BSTAR": 0.0014219,
  "MEAN_MOTION_DOT": 0.00996984,
  "MEAN_MOTION_DDOT": 0.0005286
}]