1998-067XC              
1 62296U 98067XC  25022.19712768  .00154926  00000+0  17948-2 0  9994
2 62296  51.6353 308.5134 0014585 129.6271 230.6013 15.60670915  6826
1998-067XD              
1 62297U 98067XD  25022.15228666  .00249806  00000+0  24241-2 0  9996
2 62297  51.6346 308.2125 0015702 135.8973 224.3277 15.64856671  6827
YOMOGI                  
1 62298U 98067XE  25022.06783724  .00150678  00000+0  17391-2 0  9994
2 62298  51.6346 309.1495 0014513 129.8384 230.3888 15.60784758  6801
ONGLAISAT               
1 62299U 98067XF  25022.34404527  .00280323  00000+0  26465-2 0  9990
2 62299  51.6348 307.2464 0013577 140.2656 219.9336 15.65485885  6835
ISS DEB                 
1 62376U 98067XG  25022.18354601  .00146381  00000+0  18433-2 0  9996
2 62376  51.6374 309.1777 0011561 129.5836 230.6179 15.58560110  5201
DRAGON CRS-31 DEB       
1 62608U 24200B   25022.03975059  .00996984  52860-3  14219-2 0  9997
2 62608  51.6292 301.3459 0031879 286.8128  77.6406 16.03905875  1248
